{
  "type": "FeatureCollection",
  "features": [
    {
      "type": "Feature",
      "properties": {
        "norad_id": 29268,
        "name": "ARIRANG-2 (KOMPSAT-2)",
        "group": "resource",
        "lat": 43.110554684003006,
        "lon": 160.0506269790658,
        "alt_km": 671.39028467154,
        "timestamp": "2025-12-04T13:52:00.104572+00:00",
        "meta_object_name": "ARIRANG-2 (KOMPSAT-2)",
        "meta_object_id": "2006-031A",
        "meta_epoch": "2025-12-04T07:54:00.420192",
        "meta_mean_motion": 14.6448248,
        "meta_eccentricity": 0.00139443,
        "meta_inclination": 97.8264,
        "meta_ra_of_asc_node": 167.2121,
        "meta_arg_of_pericenter": 337.0021,
        "meta_mean_anomaly": 196.6447,
        "meta_ephemeris_type": 0,
        "meta_classification_type": "U",
        "meta_norad_cat_id": 29268,
        "meta_element_set_no": 999,
        "meta_rev_at_epoch": 3295,
        "meta_bstar": 0.00016103808,
        "meta_mean_motion_dot": 8.09e-06,
        "meta_mean_motion_ddot": 0,
        "tle_line1": "1 29268U 06031A   25338.32917153  .00000809  00000+0  16104-3 0  9990",
        "tle_line2": "2 29268  97.8264 167.2121 0013944 337.0021 196.6447 14.64482480 32959"
      },
      "geometry": {
        "type": "Point",
        "coordinates": [
          160.0506269790658,
          43.110554684003006
        ]
      }
    },
    {
      "type": "Feature",
      "properties": {
        "norad_id": 29709,
        "name": "LAPAN-TUBSAT",
        "group": "resource",
        "lat": 74.36080469048072,
        "lon": -62.11979559536281,
        "alt_km": 595.5920044103623,
        "timestamp": "2025-12-04T13:52:00.104586+00:00",
        "meta_object_name": "LAPAN-TUBSAT",
        "meta_object_id": "2007-001A",
        "meta_epoch": "2025-12-04T07:03:28.428192",
        "meta_mean_motion": 14.85651207,
        "meta_eccentricity": 0.00136102,
        "meta_inclination": 98.1252,
        "meta_ra_of_asc_node": 328.2773,
        "meta_arg_of_pericenter": 99.1369,
        "meta_mean_anomaly": 261.1386,
        "meta_ephemeris_type": 0,
        "meta_classification_type": "U",
        "meta_norad_cat_id": 29709,
        "meta_element_set_no": 999,
        "meta_rev_at_epoch": 2221,
        "meta_bstar": 0.0001586467,
        "meta_mean_motion_dot": 1.319e-05,
        "meta_mean_motion_ddot": 0,
        "tle_line1": "1 29709U 07001A   25338.29407903  .00001319  00000+0  15865-3 0  9991",
        "tle_line2": "2 29709  98.1252 328.2773 0013610  99.1369 261.1386 14.85651207 22219"
      },
      "geometry": {
        "type": "Point",
        "coordinates": [
          -62.11979559536281,
          74.36080469048072
        ]
      }
    },
    {
      "type": "Feature",
      "properties": {
        "norad_id": 31113,
        "name": "HAIYANG-1B",
        "group": "resource",
        "lat": 52.254354748228515,
        "lon": 154.10367261439862,
        "alt_km": 779.4298281167057,
        "timestamp": "2025-12-04T13:52:00.104597+00:00",
        "meta_object_name": "HAIYANG-1B",
        "meta_object_id": "2007-010A",
        "meta_epoch": "2025-12-04T04:53:10.930272",
        "meta_mean_motion": 14.30960734,
        "meta_eccentricity": 0.00145664,
        "meta_inclination": 98.3307,
        "meta_ra_of_asc_node": 322.8348,
        "meta_arg_of_pericenter": 61.6251,
        "meta_mean_anomaly": 298.6399,
        "meta_ephemeris_type": 0,
        "meta_classification_type": "U",
        "meta_norad_cat_id": 31113,
        "meta_element_set_no": 999,
        "meta_rev_at_epoch": 97274,
        "meta_bstar": 0.00011716773,
        "meta_mean_motion_dot": 2.67e-06,
        "meta_mean_motion_ddot": 0,
        "tle_line1": "1 31113U 07010A   25338.20359873  .00000267  00000+0  11717-3 0  9999",
        "tle_line2": "2 31113  98.3307 322.8348 0014566  61.6251 298.6399 14.30960734972746"
      },
      "geometry": {
        "type": "Point",
        "coordinates": [
          154.10367261439862,
          52.254354748228515
        ]
      }
    },
    {
      "type": "Feature",
      "properties": {
        "norad_id": 31598,
        "name": "COSMO-SKYMED 1",
        "group": "resource",
        "lat": 78.8869642741951,
        "lon": 28.788799769811895,
        "alt_km": 572.0450485354795,
        "timestamp": "2025-12-04T13:52:00.104608+00:00",
        "meta_object_name": "COSMO-SKYMED 1",
        "meta_object_id": "2007-023A",
        "meta_epoch": "2025-12-04T07:00:30.547008",
        "meta_mean_motion": 14.95669801,
        "meta_eccentricity": 0.00013599,
        "meta_inclination": 97.8838,
        "meta_ra_of_asc_node": 163.6365,
        "meta_arg_of_pericenter": 79.8505,
        "meta_mean_anomaly": 280.2869,
        "meta_ephemeris_type": 0,
        "meta_classification_type": "U",
        "meta_norad_cat_id": 31598,
        "meta_element_set_no": 999,
        "meta_rev_at_epoch": 64,
        "meta_bstar": 0.00073265811,
        "meta_mean_motion_dot": 8.095e-05,
        "meta_mean_motion_ddot": 0,
        "tle_line1": "1 31598U 07023A   25338.29202022  .00008095  00000+0  73266-3 0  9996",
        "tle_line2": "2 31598  97.8838 163.6365 0001359  79.8505 280.2869 14.95669801   647"
      },
      "geometry": {
        "type": "Point",
        "coordinates": [
          28.788799769811895,
          78.8869642741951
        ]
      }
    },
    {
      "type": "Feature",
      "properties": {
        "norad_id": 31698,
        "name": "TERRASAR-X",
        "group": "resource",
        "lat": 33.05337610626777,
        "lon": 168.9598741104983,
        "alt_km": 505.7910826099178,
        "timestamp": "2025-12-04T13:52:00.104619+00:00",
        "meta_object_name": "TERRASAR-X",
        "meta_object_id": "2007-026A",
        "meta_epoch": "2025-12-03T15:05:32.684928",
        "meta_mean_motion": 15.19160309,
        "meta_eccentricity": 0.0001999,
        "meta_inclination": 97.4447,
        "meta_ra_of_asc_node": 343.1435,
        "meta_arg_of_pericenter": 87.129,
        "meta_mean_anomaly": 273.0173,
        "meta_ephemeris_type": 0,
        "meta_classification_type": "U",
        "meta_norad_cat_id": 31698,
        "meta_element_set_no": 999,
        "meta_rev_at_epoch": 2353,
        "meta_bstar": 0.00010298495,
        "meta_mean_motion_dot": 2.097e-05,
        "meta_mean_motion_ddot": 0,
        "tle_line1": "1 31698U 07026A   25337.62885052  .00002097  00000+0  10298-3 0  9998",
        "tle_line2": "2 31698  97.4447 343.1435 0001999  87.1290 273.0173 15.19160309 23533"
      },
      "geometry": {
        "type": "Point",
        "coordinates": [
          168.9598741104983,
          33.05337610626777
        ]
      }
    },
    {
      "type": "Feature",
      "properties": {
        "norad_id": 32060,
        "name": "WORLDVIEW-1 (WV-1)",
        "group": "resource",
        "lat": -11.656522808594126,
        "lon": 97.70829968999607,
        "alt_km": 496.96546985237364,
        "timestamp": "2025-12-04T13:52:00.104630+00:00",
        "meta_object_name": "WORLDVIEW-1 (WV-1)",
        "meta_object_id": "2007-041A",
        "meta_epoch": "2025-12-04T07:37:00.691104",
        "meta_mean_motion": 15.2447385,
        "meta_eccentricity": 7.621e-05,
        "meta_inclination": 97.3841,
        "meta_ra_of_asc_node": 95.9186,
        "meta_arg_of_pericenter": 95.8163,
        "meta_mean_anomaly": 264.3162,
        "meta_ephemeris_type": 0,
        "meta_classification_type": "U",
        "meta_norad_cat_id": 32060,
        "meta_element_set_no": 999,
        "meta_rev_at_epoch": 1319,
        "meta_bstar": 0.00072682955,
        "meta_mean_motion_dot": 0.0001781,
        "meta_mean_motion_ddot": 0,
        "tle_line1": "1 32060U 07041A   25338.31736911  .00017810  00000+0  72683-3 0  9990",
        "tle_line2": "2 32060  97.3841  95.9186 0000762  95.8163 264.3162 15.24473850 13197"
      },
      "geometry": {
        "type": "Point",
        "coordinates": [
          97.70829968999607,
          -11.656522808594126
        ]
      }
    },
    {
      "type": "Feature",
      "properties": {
        "norad_id": 32289,
        "name": "YAOGAN-3",
        "group": "resource",
        "lat": 58.964958191124985,
        "lon": -161.48970368433055,
        "alt_km": 592.0963665997142,
        "timestamp": "2025-12-04T13:52:00.104640+00:00",
        "meta_object_name": "YAOGAN-3",
        "meta_object_id": "2007-055A",
        "meta_epoch": "2025-12-04T08:29:38.012352",
        "meta_mean_motion": 14.89794259,
        "meta_eccentricity": 0.0001512,
        "meta_inclination": 97.8371,
        "meta_ra_of_asc_node": 5.0553,
        "meta_arg_of_pericenter": 78.929,
        "meta_mean_anomaly": 281.2098,
        "meta_ephemeris_type": 0,
        "meta_classification_type": "U",
        "meta_norad_cat_id": 32289,
        "meta_element_set_no": 999,
        "meta_rev_at_epoch": 97684,
        "meta_bstar": 0.00064691939,
        "meta_mean_motion_dot": 6.154e-05,
        "meta_mean_motion_ddot": 0,
        "tle_line1": "1 32289U 07055A   25338.35391218  .00006154  00000+0  64692-3 0  9999",
        "tle_line2": "2 32289  97.8371   5.0553 0001512  78.9290 281.2098 14.89794259976845"
      },
      "geometry": {
        "type": "Point",
        "coordinates": [
          -161.48970368433055,
          58.964958191124985
        ]
      }
    }
  ]
}